{
    "links": {
        "self": "http://www.neowsapp.com/rest/v1/neo/54091651?api_key=iIulBulltgU6a56xZRHN4H3l9WmuAYTsLGpBGhQ2"
    },
    "id": "54091651",
    "neo_reference_id": "54091651",
    "name": "(2020 WB2)",
    "designation": "2020 WB2",
    "nasa_jpl_url": "http://ssd.jpl.nasa.gov/sbdb.cgi?sstr=54091651",
    "absolute_magnitude_h": 23.437,
    "estimated_diameter": {
        "kilometers": {
            "estimated_diameter_min": 0.0545952648,
            "estimated_diameter_max": 0.1220787233
        },
        "meters": {
            "estimated_diameter_min": 54.5952647803,
            "estimated_diameter_max": 122.0787232984
        },
        "miles": {
            "estimated_diameter_min": 0.0339239143,
            "estimated_diameter_max": 0.0758561784
        },
        "feet": {
            "estimated_diameter_min": 179.1183285019,
            "estimated_diameter_max": 400.5207585464
        }
    },
    "is_potentially_hazardous_asteroid": false,
    "close_approach_data": [
        {
            "close_approach_date": "2020-11-16",
            "close_approach_date_full": "2020-Nov-16 12:48",
            "epoch_date_close_approach": 1605530880000,
            "relative_velocity": {
                "kilometers_per_second": "16.9460221214",
                "kilometers_per_hour": "61005.6796369626",
                "miles_per_hour": "37906.5568833116"
            },
            "miss_distance": {
                "astronomical": "0.0066363876",
                "lunar": "2.5815547764",
                "kilometers": "992789.449454412",
                "miles": "616890.7582864056"
            },
            "orbiting_body": "Moon"
        },
        {
            "close_approach_date": "2020-11-16",
            "close_approach_date_full": "2020-Nov-16 19:40",
            "epoch_date_close_approach": 1605555600000,
            "relative_velocity": {
                "kilometers_per_second": "16.903667736",
                "kilometers_per_hour": "60853.2038494488",
                "miles_per_hour": "37811.8143585645"
            },
            "miss_distance": {
                "astronomical": "0.0066894596",
                "lunar": "2.6021997844",
                "kilometers": "1000728.907611052",
                "miles": "621824.1088224376"
            },
            "orbiting_body": "Earth"
        }
    ],
    "orbital_data": {
        "orbit_id": "12",
        "orbit_determination_date": "2020-12-07 05:26:55",
        "first_observation_date": "2020-11-19",
        "last_observation_date": "2020-12-07",
        "data_arc_in_days": 18,
        "observations_used": 143,
        "orbit_uncertainty": "7",
        "minimum_orbit_intersection": ".00252343",
        "jupiter_tisserand_invariant": "2.900",
        "epoch_osculation": "2459000.5",
        "eccentricity": ".7155578590513566",
        "semi_major_axis": "2.760593618608299",
        "inclination": "4.114738244526674",
        "ascending_node_longitude": "233.0943994375264",
        "orbital_period": "1675.336870499027",
        "perihelion_distance": ".7852291591661074",
        "perihelion_argument": "122.6067828235238",
        "aphelion_distance": "4.735958078050492",
        "perihelion_time": "2459132.809786688434",
        "mean_anomaly": "331.568987678491",
        "mean_motion": ".2148821567406727",
        "equinox": "J2000",
        "orbit_class": {
            "orbit_class_type": "APO",
            "orbit_class_description": "Near-Earth asteroid orbits which cross the Earth’s orbit similar to that of 1862 Apollo",
            "orbit_class_range": "a (semi-major axis) > 1.0 AU; q (perihelion) < 1.017 AU"
        }
    },
    "is_sentry_object": false
}